STARLINK-35392          
1 65823U 25221A   25299.86816902  .00075528  00000+0  13517-2 0  9998
2 65823  53.1596 351.4328 0001659  78.6402 281.4794 15.49334828  5578
STARLINK-35281          
1 65824U 25221B   25300.51290670  .00077552  00000+0  13878-2 0  9991
2 65824  53.1600 348.3454 0001988  52.1390 307.9798 15.49324403  5675
STARLINK-35397          
1 65825U 25221C   25300.51221878  .00106521  00000+0  18975-2 0  9998
2 65825  53.1597 348.3415 0001518  83.2650 276.8532 15.49305776  5673
STARLINK-35381          
1 65826U 25221D   25300.51256046  .00076533  00000+0  13708-2 0  9992
2 65826  53.1593 348.3433 0001184  82.3812 277.7331 15.49306145  5677
STARLINK-35393          
1 65827U 25221E   25300.57363440  .00042279  00000+0  76412-3 0  9998
2 65827  53.1594 348.0112 0001357  90.8768 269.2396 15.49309081  5686
STARLINK-35396          
1 65828U 25221F   25300.51187625  .00072015  00000+0  12900-2 0  9994
2 65828  53.1599 348.3390 0002063  42.8160 317.3010 15.49328997  5675
STARLINK-35244          
1 65829U 25221G   25300.52394485  .00038933  00000+0  97839-3 0  9996
2 65829  53.1597 349.8708 0001386  84.4229 275.6934 15.39618393  5614
STARLINK-35368          
1 65830U 25221H   25300.57535159  .00067377  00000+0  12087-2 0  9993
2 65830  53.1592 348.0223 0001278  93.3789 266.7366 15.49317942  5644
STARLINK-35337          
1 65831U 25221J   25300.51153412  .00078836  00000+0  14109-2 0  9995
2 65831  53.1594 348.3360 0002026  57.1293 302.9911 15.49315362  5678
STARLINK-35277          
1 65832U 25221K   25300.51118755  .00077144  00000+0  13817-2 0  9993
2 65832  53.1595 348.3350 0001297  85.6337 274.4820 15.49303026  5679
STARLINK-35345          
1 65833U 25221L   25300.44599258  .00073392  00000+0  13158-2 0  9996
2 65833  53.1597 348.6375 0001409  64.3323 295.7831 15.49298302  5663
STARLINK-35320          
1 65834U 25221M   25300.57432331  .00067597  00000+0  12128-2 0  9995
2 65834  53.1597 348.0156 0001479  69.4321 290.6846 15.49312942  4336
STARLINK-35349          
1 65835U 25221N   25300.38113897  .00105341  00000+0  18708-2 0  9998
2 65835  53.1598 348.9427 0000975 115.7527 244.3583 15.49397527  4304
STARLINK-35356          
1 65836U 25221P   25300.57398080  .00070978  00000+0  12723-2 0  9997
2 65836  53.1600 348.0132 0002153  45.9068 314.2118 15.49317036  4338
STARLINK-35314          
1 65837U 25221Q   25300.57294972  .00070320  00000+0  12606-2 0  9994
2 65837  53.1600 348.0068 0001647  59.7015 300.4157 15.49317999  4337
STARLINK-35324          
1 65838U 25221R   25300.37976529  .00098234  00000+0  17470-2 0  9996
2 65838  53.1593 348.9341 0000896 108.9709 251.1397 15.49392397  4304
STARLINK-35102          
1 65839U 25221S   25300.63711334  .00055223  00000+0  99354-3 0  9990
2 65839  53.1593 347.6949 0001356  85.0254 275.0910 15.49320497  4349
STARLINK-35364          
1 65840U 25221T   25300.57226185  .00066558  00000+0  11943-2 0  9990
2 65840  53.1593 348.0013 0001457  72.3544 287.7624 15.49316861  4332
STARLINK-35238          
1 65841U 25221U   25300.50706451  .00082309  00000+0  14724-2 0  9995
2 65841  53.1593 348.3044 0001258  98.8735 261.2417 15.49310247  4322
STARLINK-35298          
1 65842U 25221V   25300.37839078  .00104175  00000+0  18503-2 0  9998
2 65842  53.1596 348.9245 0000799  98.3014 261.8086 15.49399953  4306
STARLINK-35301          
1 65843U 25221W   25300.57089117  .00083286  00000+0  14893-2 0  9999
2 65843  53.1595 347.9910 0002405  48.9594 311.1622 15.49314356  4336
STARLINK-35148          
1 65844U 25221X   25300.57123271  .00062992  00000+0  11316-2 0  9998
2 65844  53.1602 347.9932 0001644  69.2963 290.8222 15.49305987  4339
STARLINK-35302          
1 65845U 25221Y   25300.57054359  .00041329  00000+0  74720-3 0  9999
2 65845  53.1595 347.9888 0001176  69.2603 290.8532 15.49310208  4338
STARLINK-35290          
1 65846U 25221Z   25300.44084152  .00096702  00000+0  17243-2 0  9991
2 65846  53.1596 348.6027 0001824  40.9158 319.1988 15.49325637  4314
STARLINK-35262          
1 65847U 25221AA  25300.63367906  .00061732  00000+0  11087-2 0  9999
2 65847  53.1588 347.6718 0001822  70.7211 289.3995 15.49322826  5696
STARLINK-35308          
1 65848U 25221AB  25300.57020081  .00037034  00000+0  67080-3 0  9996
2 65848  53.1597 347.9858 0001418  71.4785 288.6379 15.49307991  5683
STARLINK-35231          
1 65849U 25221AC  25300.50500512  .00068334  00000+0  12263-2 0  9991
2 65849  53.1600 348.2909 0001343  81.2607 278.8554 15.49301839  5679
STARLINK-35252          
1 65850U 25221AD  25300.56882615  .00036468  00000+0  66083-3 0  9999
2 65850  53.1593 347.9777 0001173  89.7801 270.3342 15.49303077  5680
SHIYAN-30 01            
1 65851U 25222A   25300.86119661  .00004261  00000+0  40457-3 0  9991
2 65851  34.9879 216.1655 0006092 220.1403 139.8852 14.92991371  4301
SHIYAN-30 02            
1 65852U 25222B   25300.86050707  .00004258  00000+0  40423-3 0  9996
2 65852  34.9965 216.1720 0007364 222.0439 137.9701 14.92992397  4282
CZ-2D R/B               
1 65853U 25222C   25300.20765620  .00002850  00000+0  22303-3 0  9995
2 65853  34.9022 218.1253 0056591 217.7856 141.8868 14.99322272  4228
STARLINK-35208          
1 65854U 25223A   25300.83334491  .00004918  00000+0  13289-3 0  9994
2 65854  53.1587 193.9962 0001086  96.6668   4.1193 15.39612104  5111
STARLINK-35200          
1 65855U 25223B   25300.85956372  .00075627  00000+0  13534-2 0  9992
2 65855  53.1590 193.6463 0000908  95.2995 264.8118 15.49336706  3830
STARLINK-35459          
1 65856U 25223C   25300.83334491  .00021172  00000+0  53842-3 0  9996
2 65856  53.1594 193.8424 0000991 117.7346  60.3537 15.39585290  5116
STARLINK-35489          
1 65857U 25223D   25300.85887889  .00105619  00000+0  18798-2 0  9992
2 65857  53.1590 193.6426 0001086  99.4728 260.6404 15.49334914  3830
STARLINK-35199          
1 65858U 25223E   25300.83334491 -.02068642  00000+0 -47324-1 0  9991
2 65858  53.1596 193.7698 0001421  95.8297 118.6934 15.45776542  5119
STARLINK-35408          
1 65859U 25223F   25300.83334491  .00024216  00000+0  61395-3 0  9993
2 65859  53.1588 193.9444 0001150 105.2400  21.2875 15.39595666  5115
STARLINK-35303          
1 65860U 25223G   25300.83334491 -.02215343  00000+0 -57459-1 0  9996
2 65860  53.1594 193.7954 0001046 114.4205  87.6703 15.41776047  5110
STARLINK-35258          
1 65861U 25223H   25300.85818940  .00089600  00000+0  15994-2 0  9995
2 65861  53.1587 193.6367 0000416 101.9464 258.1591 15.49331656  3836
STARLINK-35386          
1 65862U 25223J   25300.85701750 -.00459696  00000+0 -91056-2 0  9997
2 65862  53.1591 193.6292 0001211  48.5056 311.6056 15.48188062  3837
STARLINK-35469          
1 65863U 25223K   25300.83334491  .00008578  00000+0  22433-3 0  9991
2 65863  53.1587 193.8924 0001290  95.4423  56.8734 15.39599599  5118
STARLINK-35471          
1 65864U 25223L   25300.79196485  .00091227  00000+0  16274-2 0  9994
2 65864  53.1584 193.9336 0001306  94.1442 265.9716 15.49341065  3822
STARLINK-35475          
1 65865U 25223M   25300.85613161  .00105091  00000+0  18704-2 0  9992
2 65865  53.1592 193.6227 0001278  86.5531 273.5625 15.49336866  3838
STARLINK-35312          
1 65866U 25223N   25300.85577801  .00077457  00000+0  13868-2 0  9993
2 65866  53.1587 193.6202 0002266 125.9158 234.2062 15.49310956  3838
STARLINK-35456          
1 65867U 25223P   25300.85545367  .00095218  00000+0  16997-2 0  9997
2 65867  53.1587 193.6177 0001492 107.8490 252.2682 15.49302532  3837
STARLINK-35450          
1 65868U 25223Q   25300.83334491  .00025996  00000+0  65766-3 0  9995
2 65868  53.1592 193.8372 0001416  75.3887 104.4010 15.39620269  5113
STARLINK-35441          
1 65869U 25223R   25300.83334491  .00004906  00000+0  13234-3 0  9997
2 65869  53.1589 193.8871 0001109  89.7866  64.2233 15.39667847  5112
STARLINK-35433          
1 65870U 25223S   25300.83334491 -.01986371  00000+0 -49737-1 0  9992
2 65870  53.1598 193.7422 0001622  87.1115 139.6808 15.42996722  5110
STARLINK-35465          
1 65871U 25223T   25300.83334491  .00026837  00000+0  67945-3 0  9995
2 65871  53.1597 193.7843 0001279  86.4719 119.1882 15.39578792  5111
STARLINK-34108          
1 65872U 25223U   25300.85340888 -.00088710  00000+0 -16159-2 0  9995
2 65872  53.1594 193.6043 0000450  49.7229 310.3819 15.49120291  3838
STARLINK-35423          
1 65873U 25223V   25300.78853091  .00072901  00000+0  13057-2 0  9990
2 65873  53.1593 193.9095 0001283  73.6505 286.4645 15.49329058  3827
STARLINK-35425          
1 65874U 25223W   25300.85464855 -.00439860  00000+0 -92945-2 0  9991
2 65874  53.1595 193.6123 0000685  72.6188 287.4894 15.46261631  3837
STARLINK-34688          
1 65875U 25223X   25300.85269606  .00100089  00000+0  17830-2 0  9995
2 65875  53.1590 193.5987 0001295  97.9865 262.1291 15.49335598  3838
STARLINK-34438          
1 65876U 25223Y   25300.85235226  .00106805  00000+0  19001-2 0  9991
2 65876  53.1591 193.5972 0001226  97.8585 262.2563 15.49341255  3836
STARLINK-35462          
1 65877U 25223Z   25300.85131936  .00056915  00000+0  10222-2 0  9997
2 65877  53.1592 193.5890 0001326  95.4245 264.6915 15.49356728  3833
STARLINK-35453          
1 65878U 25223AA  25300.85200956  .00102432  00000+0  18242-2 0  9993
2 65878  53.1594 193.5944 0001207  83.8798 276.2348 15.49332712  3834
STARLINK-35418          
1 65879U 25223AB  25300.85097870  .00088685  00000+0  15834-2 0  9990
2 65879  53.1596 193.5874 0001306  86.0647 274.0512 15.49330485  3831
STARLINK-35445          
1 65880U 25223AC  25300.85166524  .00099907  00000+0  17796-2 0  9993
2 65880  53.1591 193.5919 0001247  84.9163 275.1989 15.49338548  3830
STARLINK-35464          
1 65881U 25223AD  25300.85063481  .00090176  00000+0  16095-2 0  9992
2 65881  53.1595 193.5850 0001307  88.1507 271.9652 15.49332039  3834
